start=new Date('2021-09-09T00:00:00.000Z').valueOf();
sats=[{"EPHEMERIS_TYPE":"0","RCS_SIZE":"LARGE","TLE_LINE1":"1 45401U 20019AT  21251.67999550  .00000178  00000-0  30839-4 0  9990","BSTAR":"0.00003083900000","TIME_SYSTEM":"UTC","OBJECT_NAME":"STARLINK-1256","EPOCH":"2021-09-08T16:19:11.611200","ELEMENT_SET_NO":"999","PERIOD":"95.591","INCLINATION":"53.0548","REF_FRAME":"TEME","ARG_OF_PERICENTER":"115.9375","FILE":"3111252","CENTER_NAME":"EARTH","RA_OF_ASC_NODE":"312.3834","MEAN_MOTION":"15.06410557","MEAN_ANOMALY":"244.1691","LAUNCH_DATE":"2020-03-18","COUNTRY_CODE":"US","MEAN_ELEMENT_THEORY":"SGP4","DECAY_DATE":null,"NORAD_CAT_ID":"45401","APOAPSIS":"547.696","OBJECT_ID":"2020-019AT","ECCENTRICITY":"0.00007430","GP_ID":"184346289","MEAN_MOTION_DDOT":"0.0000000000000","SITE":"AFETR","TLE_LINE2":"2 45401  53.0548 312.3834 0000743 115.9375 244.1691 15.06410557 82315","MEAN_MOTION_DOT":"0.00000178","OBJECT_TYPE":"PAYLOAD","PERIAPSIS":"546.667","SEMIMAJOR_AXIS":"6925.316","CLASSIFICATION_TYPE":"U","REV_AT_EPOCH":"8231"},{"TIME_SYSTEM":"UTC","EPOCH":"2021-09-08T16:13:53.091552","OBJECT_NAME":"STARLINK-1257","EPHEMERIS_TYPE":"0","BSTAR":"0.00008209500000","TLE_LINE1":"1 45402U 20019AU  21251.67630893  .00000942  00000-0  82095-4 0  9993","RCS_SIZE":"LARGE","FILE":"3111252","ARG_OF_PERICENTER":"107.3967","CENTER_NAME":"EARTH","RA_OF_ASC_NODE":"312.3949","PERIOD":"95.591","ELEMENT_SET_NO":"999","INCLINATION":"53.0539","REF_FRAME":"TEME","COUNTRY_CODE":"US","NORAD_CAT_ID":"45402","APOAPSIS":"547.823","DECAY_DATE":null,"MEAN_ELEMENT_THEORY":"SGP4","OBJECT_ID":"2020-019AU","ECCENTRICITY":"0.00009250","GP_ID":"184346540","MEAN_MOTION":"15.06410167","MEAN_ANOMALY":"252.7123","LAUNCH_DATE":"2020-03-18","REV_AT_EPOCH":"8232","CLASSIFICATION_TYPE":"U","SEMIMAJOR_AXIS":"6925.317","SITE":"AFETR","TLE_LINE2":"2 45402  53.0539 312.3949 0000925 107.3967 252.7123 15.06410167 82320","MEAN_MOTION_DOT":"0.00000942","MEAN_MOTION_DDOT":"0.0000000000000","OBJECT_TYPE":"PAYLOAD","PERIAPSIS":"546.542"},{"TLE_LINE1":"1 45403U 20019AV  21251.55836480  .00001067  00000-0  90496-4 0  9994","RCS_SIZE":"LARGE","BSTAR":"0.00009049600000","EPHEMERIS_TYPE":"0","TIME_SYSTEM":"UTC","OBJECT_NAME":"STARLINK-1259","EPOCH":"2021-09-08T13:24:02.718720","REF_FRAME":"TEME","ELEMENT_SET_NO":"999","PERIOD":"95.592","INCLINATION":"53.0554","CENTER_NAME":"EARTH","RA_OF_ASC_NODE":"312.9296","ARG_OF_PERICENTER":"114.2206","FILE":"3111207","LAUNCH_DATE":"2020-03-18","MEAN_MOTION":"15.06394358","MEAN_ANOMALY":"245.8874","OBJECT_ID":"2020-019AV","ECCENTRICITY":"0.00008740","GP_ID":"184326213","COUNTRY_CODE":"US","DECAY_DATE":null,"MEAN_ELEMENT_THEORY":"SGP4","NORAD_CAT_ID":"45403","APOAPSIS":"547.836","OBJECT_TYPE":"PAYLOAD","PERIAPSIS":"546.626","MEAN_MOTION_DDOT":"0.0000000000000","SITE":"AFETR","TLE_LINE2":"2 45403  53.0554 312.9296 0000874 114.2206 245.8874 15.06394358 82290","MEAN_MOTION_DOT":"0.00001067","SEMIMAJOR_AXIS":"6925.366","CLASSIFICATION_TYPE":"U","REV_AT_EPOCH":"8229"},{"OBJECT_ID":"2020-019AW","ECCENTRICITY":"0.00008470","GP_ID":"184345539","COUNTRY_CODE":"US","MEAN_ELEMENT_THEORY":"SGP4","DECAY_DATE":null,"NORAD_CAT_ID":"45404","APOAPSIS":"547.825","LAUNCH_DATE":"2020-03-18","MEAN_MOTION":"15.06391781","MEAN_ANOMALY":"255.6168","CLASSIFICATION_TYPE":"U","SEMIMAJOR_AXIS":"6925.374","REV_AT_EPOCH":"8221","OBJECT_TYPE":"PAYLOAD","PERIAPSIS":"546.652","MEAN_MOTION_DDOT":"0.0000000000000","TLE_LINE2":"2 45404  53.0539 312.5839 0000847 104.4915 255.6168 15.06391781 82215","MEAN_MOTION_DOT":"-0.00000802","SITE":"AFETR","TIME_SYSTEM":"UTC","OBJECT_NAME":"STARLINK-1260","EPOCH":"2021-09-08T15:15:30.610080","RCS_SIZE":"LARGE","TLE_LINE1":"1 45404U 20019AW  21251.63577095 -.00000802  00000-0 -34981-4 0  9993","BSTAR":"-0.00003498100000","EPHEMERIS_TYPE":"0","CENTER_NAME":"EARTH","RA_OF_ASC_NODE":"312.5839","ARG_OF_PERICENTER":"104.4915","FILE":"3111252","REF_FRAME":"TEME","ELEMENT_SET_NO":"999","PERIOD":"95.593","INCLINATION":"53.0539"},{"OBJECT_ID":"2020-019AX","GP_ID":"184345789","ECCENTRICITY":"0.00008090","COUNTRY_CODE":"US","NORAD_CAT_ID":"45405","APOAPSIS":"547.744","DECAY_DATE":null,"MEAN_ELEMENT_THEORY":"SGP4","LAUNCH_DATE":"2020-03-18","MEAN_MOTION":"15.06409885","MEAN_ANOMALY":"242.1943","REV_AT_EPOCH":"8222","SEMIMAJOR_AXIS":"6925.318","CLASSIFICATION_TYPE":"U","OBJECT_TYPE":"PAYLOAD","PERIAPSIS":"546.623","TLE_LINE2":"2 45405  53.0557 312.3531 0000809 117.9128 242.1943 15.06409885 82224","SITE":"AFETR","MEAN_MOTION_DOT":"-0.00000294","MEAN_MOTION_DDOT":"0.0000000000000","TIME_SYSTEM":"UTC","EPOCH":"2021-09-08T16:29:48.714432","OBJECT_NAME":"STARLINK-1263","BSTAR":"-0.00000082801000","TLE_LINE1":"1 45405U 20019AX  21251.68736938 -.00000294  00000-0 -82801-6 0  9993","RCS_SIZE":"LARGE","EPHEMERIS_TYPE":"0","RA_OF_ASC_NODE":"312.3531","CENTER_NAME":"EARTH","FILE":"3111252","ARG_OF_PERICENTER":"117.9128","REF_FRAME":"TEME","PERIOD":"95.592","ELEMENT_SET_NO":"999","INCLINATION":"53.0557"},{"PERIAPSIS":"546.660","OBJECT_TYPE":"PAYLOAD","TLE_LINE2":"2 45406  53.0545 312.3101 0000810 117.9248 242.1823 15.06397730 82222","MEAN_MOTION_DOT":"0.00000016","SITE":"AFETR","MEAN_MOTION_DDOT":"0.0000000000000","REV_AT_EPOCH":"8222","CLASSIFICATION_TYPE":"U","SEMIMAJOR_AXIS":"6925.356","LAUNCH_DATE":"2020-03-18","MEAN_ANOMALY":"242.1823","MEAN_MOTION":"15.06397730","GP_ID":"184347041","ECCENTRICITY":"0.00008100","OBJECT_ID":"2020-019AY","NORAD_CAT_ID":"45406","APOAPSIS":"547.781","DECAY_DATE":null,"MEAN_ELEMENT_THEORY":"SGP4","COUNTRY_CODE":"US","REF_FRAME":"TEME","INCLINATION":"53.0545","PERIOD":"95.592","ELEMENT_SET_NO":"999","RA_OF_ASC_NODE":"312.3101","CENTER_NAME":"EARTH","FILE":"3111252","ARG_OF_PERICENTER":"117.9248","TLE_LINE1":"1 45406U 20019AY  21251.69474668  .00000016  00000-0  19946-4 0  9992","RCS_SIZE":"LARGE","BSTAR":"0.00001994600000","EPHEMERIS_TYPE":"0","EPOCH":"2021-09-08T16:40:26.113152","OBJECT_NAME":"STARLINK-1265","TIME_SYSTEM":"UTC"},{"PERIAPSIS":"546.768","OBJECT_TYPE":"PAYLOAD","MEAN_MOTION_DDOT":"0.0000000000000","TLE_LINE2":"2 45407  53.0555 312.5443 0000673 125.9023 234.2028 15.06393233 82214","MEAN_MOTION_DOT":"0.00000951","SITE":"AFETR","CLASSIFICATION_TYPE":"U","SEMIMAJOR_AXIS":"6925.369","REV_AT_EPOCH":"8221","LAUNCH_DATE":"2020-03-18","MEAN_ANOMALY":"234.2028","MEAN_MOTION":"15.06393233","GP_ID":"184346791","ECCENTRICITY":"0.00006730","OBJECT_ID":"2020-019AZ","MEAN_ELEMENT_THEORY":"SGP4","DECAY_DATE":null,"NORAD_CAT_ID":"45407","APOAPSIS":"547.700","COUNTRY_CODE":"US","REF_FRAME":"TEME","INCLINATION":"53.0555","ELEMENT_SET_NO":"999","PERIOD":"95.593","CENTER_NAME":"EARTH","RA_OF_ASC_NODE":"312.5443","ARG_OF_PERICENTER":"125.9023","FILE":"3111252","TLE_LINE1":"1 45407U 20019AZ  21251.64314253  .00000951  00000-0  82701-4 0  9998","RCS_SIZE":"LARGE","BSTAR":"0.00008270100000","EPHEMERIS_TYPE":"0","OBJECT_NAME":"STARLINK-1275","EPOCH":"2021-09-08T15:26:07.514592","TIME_SYSTEM":"UTC"},{"COUNTRY_CODE":"US","APOAPSIS":"548.015","NORAD_CAT_ID":"45408","DECAY_DATE":null,"MEAN_ELEMENT_THEORY":"SGP4","OBJECT_ID":"2020-019BA","ECCENTRICITY":"0.00011250","GP_ID":"184346040","MEAN_MOTION":"15.06392756","MEAN_ANOMALY":"241.8211","LAUNCH_DATE":"2020-03-18","REV_AT_EPOCH":"8181","CLASSIFICATION_TYPE":"U","SEMIMAJOR_AXIS":"6925.371","TLE_LINE2":"2 45408  53.0547 342.2006 0001125 118.2892 241.8211 15.06392756 81815","MEAN_MOTION_DOT":"-0.00000616","SITE":"AFETR","MEAN_MOTION_DDOT":"0.0000000000000","OBJECT_TYPE":"PAYLOAD","PERIAPSIS":"546.457","TIME_SYSTEM":"UTC","EPOCH":"2021-09-08T17:18:54.911232","OBJECT_NAME":"STARLINK-1278","EPHEMERIS_TYPE":"0","TLE_LINE1":"1 45408U 20019BA  21251.72146888 -.00000616  00000-0 -22458-4 0  9998","RCS_SIZE":"LARGE","BSTAR":"-0.00002245800000","FILE":"3111252","ARG_OF_PERICENTER":"118.2892","CENTER_NAME":"EARTH","RA_OF_ASC_NODE":"342.2006","PERIOD":"95.593","ELEMENT_SET_NO":"999","INCLINATION":"53.0547","REF_FRAME":"TEME"},{"ARG_OF_PERICENTER":"113.3483","FILE":"3111252","RA_OF_ASC_NODE":"312.5156","CENTER_NAME":"EARTH","INCLINATION":"53.0559","ELEMENT_SET_NO":"999","PERIOD":"95.592","REF_FRAME":"TEME","OBJECT_NAME":"STARLINK-1282","EPOCH":"2021-09-08T15:36:44.046720","TIME_SYSTEM":"UTC","EPHEMERIS_TYPE":"0","BSTAR":"0.00008100900000","TLE_LINE1":"1 45409U 20019BB  21251.65050980  .00000925  00000-0  81009-4 0  9996","RCS_SIZE":"LARGE","SEMIMAJOR_AXIS":"6925.352","CLASSIFICATION_TYPE":"U","REV_AT_EPOCH":"8222","MEAN_MOTION_DDOT":"0.0000000000000","TLE_LINE2":"2 45409  53.0559 312.5156 0001037 113.3483 246.7615 15.06398881 82222","SITE":"AFETR","MEAN_MOTION_DOT":"0.00000925","PERIAPSIS":"546.499","OBJECT_TYPE":"PAYLOAD","MEAN_ELEMENT_THEORY":"SGP4","DECAY_DATE":null,"NORAD_CAT_ID":"45409","APOAPSIS":"547.935","COUNTRY_CODE":"US","GP_ID":"184346290","ECCENTRICITY":"0.00010370","OBJECT_ID":"2020-019BB","MEAN_ANOMALY":"246.7615","MEAN_MOTION":"15.06398881","LAUNCH_DATE":"2020-03-18"},{"REF_FRAME":"TEME","ELEMENT_SET_NO":"999","PERIOD":"91.632","INCLINATION":"53.0562","RA_OF_ASC_NODE":"282.1562","CENTER_NAME":"EARTH","ARG_OF_PERICENTER":"33.0405","FILE":"3111252","RCS_SIZE":"LARGE","TLE_LINE1":"1 45410U 20019BC  21251.56490280  .00022142  00000-0  17372-3 0  9995","BSTAR":"0.00017372000000","EPHEMERIS_TYPE":"0","TIME_SYSTEM":"UTC","OBJECT_NAME":"STARLINK-1285","EPOCH":"2021-09-08T13:33:27.601920","OBJECT_TYPE":"PAYLOAD","PERIAPSIS":"353.098","MEAN_MOTION_DDOT":"0.0000000000000","SITE":"AFETR","TLE_LINE2":"2 45410  53.0562 282.1562 0002240  33.0405 327.0752 15.71501647 82627","MEAN_MOTION_DOT":"0.00022142","SEMIMAJOR_AXIS":"6732.742","CLASSIFICATION_TYPE":"U","REV_AT_EPOCH":"8262","LAUNCH_DATE":"2020-03-18","MEAN_MOTION":"15.71501647","MEAN_ANOMALY":"327.0752","OBJECT_ID":"2020-019BC","GP_ID":"184346541","ECCENTRICITY":"0.00022400","COUNTRY_CODE":"US","DECAY_DATE":null,"MEAN_ELEMENT_THEORY":"SGP4","APOAPSIS":"356.115","NORAD_CAT_ID":"45410"}];
